{
 "type": "FeatureCollection",
 "properties": {
  "flight_direction": "DESCENDING",
  "relative_orbit": 136,
  "subswath": "IW1",
  "k": 4,
  "reference_date": "2025-09-23"
 },
 "features": [
  {
   "type": "Feature",
   "properties": {
    "full_burst_id": "136_290874_IW1",
    "relative_burst_id": 290874,
    "absolute_burst_id": 131254332,
    "burst_index": 2,
    "samples_per_burst": 21419,
    "subswath": "IW1",
    "relative_orbit": 136,
    "flight_direction": "DESCENDING",
    "polarization": "VV",
    "platform": "SENTINEL-1A",
    "start_time": "2025-09-23T00:52:30Z",
    "azimuth_time": "2025-09-23T00:52:29Z",
    "azimuth_anx_time": "2491.0460245512",
    "scene_name": "S1_290874_IW1_20250923T005229_VV_EDDD-BURST",
    "url": "https://sentinel1-burst.asf.alaska.edu/S1A_IW_SLC__1SDV_20250923T005223_20250923T005249_061108_079DF5_EDDD/IW1/VV/2.tiff"
   },
   "geometry": {
    "coordinates": [
     [
      [
       77.904439,
       28.890475
      ],
      [
       77.45282,
       28.968572
      ],
      [
       77.033489,
       29.039796
      ],
      [
       76.990207,
       28.836048
      ],
      [
       77.409646,
       28.769286
      ],
      [
       77.861343,
       28.695659
      ],
      [
       77.904439,
       28.890475
      ]
     ]
    ],
    "type": "Polygon"
   }
  },
  {
   "type": "Feature",
   "properties": {
    "full_burst_id": "136_290875_IW1",
    "relative_burst_id": 290875,
    "absolute_burst_id": 131254333,
    "burst_index": 3,
    "samples_per_burst": 21419,
    "subswath": "IW1",
    "relative_orbit": 136,
    "flight_direction": "DESCENDING",
    "polarization": "VV",
    "platform": "SENTINEL-1A",
    "start_time": "2025-09-23T00:52:33Z",
    "azimuth_time": "2025-09-23T00:52:32Z",
    "azimuth_anx_time": "2493.8045811058",
    "scene_name": "S1_290875_IW1_20250923T005232_VV_EDDD-BURST",
    "url": "https://sentinel1-burst.asf.alaska.edu/S1A_IW_SLC__1SDV_20250923T005223_20250923T005249_061108_079DF5_EDDD/IW1/VV/3.tiff"
   },
   "geometry": {
    "coordinates": [
     [
      [
       77.870385,
       28.723674
      ],
      [
       77.419311,
       28.801838
      ],
      [
       77.000526,
       28.873125
      ],
      [
       76.957292,
       28.6694
      ],
      [
       77.376192,
       28.602574
      ],
      [
       77.827351,
       28.528879
      ],
      [
       77.870385,
       28.723674
      ]
     ]
    ],
    "type": "Polygon"
   }
  },
  {
   "type": "Feature",
   "properties": {
    "full_burst_id": "136_290876_IW1",
    "relative_burst_id": 290876,
    "absolute_burst_id": 131254334,
    "burst_index": 4,
    "samples_per_burst": 21419,
    "subswath": "IW1",
    "relative_orbit": 136,
    "flight_direction": "DESCENDING",
    "polarization": "VV",
    "platform": "SENTINEL-1A",
    "start_time": "2025-09-23T00:52:36Z",
    "azimuth_time": "2025-09-23T00:52:34Z",
    "azimuth_anx_time": "2496.5610821041",
    "scene_name": "S1_290876_IW1_20250923T005234_VV_EDDD-BURST",
    "url": "https://sentinel1-burst.asf.alaska.edu/S1A_IW_SLC__1SDV_20250923T005223_20250923T005249_061108_079DF5_EDDD/IW1/VV/4.tiff"
   },
   "geometry": {
    "coordinates": [
     [
      [
       77.833635,
       28.557346
      ],
      [
       77.383319,
       28.635529
      ],
      [
       76.965234,
       28.706846
      ],
      [
       76.922048,
       28.503118
      ],
      [
       77.340253,
       28.436261
      ],
      [
       77.790661,
       28.362545
      ],
      [
       77.833635,
       28.557346
      ]
     ]
    ],
    "type": "Polygon"
   }
  },
  {
   "type": "Feature",
   "properties": {
    "full_burst_id": "136_290877_IW1",
    "relative_burst_id": 290877,
    "absolute_burst_id": 131254335,
    "burst_index": 5,
    "samples_per_burst": 21419,
    "subswath": "IW1",
    "relative_orbit": 136,
    "flight_direction": "DESCENDING",
    "polarization": "VV",
    "platform": "SENTINEL-1A",
    "start_time": "2025-09-23T00:52:38Z",
    "azimuth_time": "2025-09-23T00:52:37Z",
    "azimuth_anx_time": "2499.3196386587",
    "scene_name": "S1_290877_IW1_20250923T005237_VV_EDDD-BURST",
    "url": "https://sentinel1-burst.asf.alaska.edu/S1A_IW_SLC__1SDV_20250923T005223_20250923T005249_061108_079DF5_EDDD/IW1/VV/5.tiff"
   },
   "geometry": {
    "coordinates": [
     [
      [
       77.796936,
       28.391009
      ],
      [
       77.347371,
       28.469214
      ],
      [
       76.929981,
       28.540561
      ],
      [
       76.886842,
       28.33683
      ],
      [
       77.304358,
       28.269942
      ],
      [
       77.75402,
       28.196204
      ],
      [
       77.796936,
       28.391009
      ]
     ]
    ],
    "type": "Polygon"
   }
  }
 ]
}