{
 "type": "FeatureCollection",
 "crs": {
  "type": "name",
  "properties": {
   "name": "EPSG:4326"
  }
 },
 "features": [
  {
   "type": "Feature",
   "properties": {
    "hotspot_id": "H001",
    "los_velocity_median_mm_per_yr": -13.586,
    "area_km2": 12.8256,
    "temporal_coherence_median": 0.8634
   },
   "geometry": {
    "type": "Polygon",
    "coordinates": [
     [
      [
       77.073090867106,
       28.84663498896104
      ],
      [
       77.07308371015914,
       28.846274179212468
      ],
      [
       77.0734935132719,
       28.846267877339773
      ],
      [
       77.07350067163107,
       28.84662868699488
      ],
      [
       77.073090867106,
       28.84663498896104
      ]
     ]
    ]
   }
  },
  {
   "type": "Feature",
   "properties": {
    "hotspot_id": "H002",
    "los_velocity_median_mm_per_yr": -14.209,
    "area_km2": 0.8352,
    "temporal_coherence_median": 0.8653
   },
   "geometry": {
    "type": "Polygon",
    "coordinates": [
     [
      [
       77.18055631013547,
       28.83014253883721
      ],
      [
       77.1805412649584,
       28.82942096801738
      ],
      [
       77.1809509733916,
       28.829414343197218
      ],
      [
       77.18096602139008,
       28.830135913820495
      ],
      [
       77.18055631013547,
       28.83014253883721
      ]
     ]
    ]
   }
  },
  {
   "type": "Feature",
   "properties": {
    "hotspot_id": "H003",
    "los_velocity_median_mm_per_yr": -12.867,
    "area_km2": 2.2544,
    "temporal_coherence_median": 0.8604
   },
   "geometry": {
    "type": "Polygon",
    "coordinates": [
     [
      [
       77.09464188524151,
       28.817428462584594
      ],
      [
       77.09463466263621,
       28.817067656231913
      ],
      [
       77.0954540286971,
       28.817054932023396
      ],
      [
       77.09546125412267,
       28.817415738187247
      ],
      [
       77.09464188524151,
       28.817428462584594
      ]
     ]
    ]
   }
  },
  {
   "type": "Feature",
   "properties": {
    "hotspot_id": "H004",
    "los_velocity_median_mm_per_yr": -30.95,
    "area_km2": 5.5904,
    "temporal_coherence_median": 0.9255
   },
   "geometry": {
    "type": "Polygon",
    "coordinates": [
     [
      [
       77.0841949506927,
       28.538594282837913
      ],
      [
       77.0841878465889,
       28.538233459215768
      ],
      [
       77.0845964489265,
       28.53822718525399
      ],
      [
       77.08460355442058,
       28.538588008782437
      ],
      [
       77.0841949506927,
       28.538594282837913
      ]
     ]
    ]
   }
  },
  {
   "type": "Feature",
   "properties": {
    "hotspot_id": "H005",
    "los_velocity_median_mm_per_yr": -14.31,
    "area_km2": 1.072,
    "temporal_coherence_median": 0.963
   },
   "geometry": {
    "type": "Polygon",
    "coordinates": [
     [
      [
       77.05516974288174,
       28.53831494117273
      ],
      [
       77.05516273775119,
       28.537954110903485
      ],
      [
       77.05557134652236,
       28.537947924324374
      ],
      [
       77.05557835304329,
       28.538308754501227
      ],
      [
       77.05516974288174,
       28.53831494117273
      ]
     ]
    ]
   }
  }
 ]
}